ONEWEB-0549             
1 56051U 23043F   26019.64944696  .00000105  00000+0  22223-3 0  9994
2 56051  87.9209 273.6165 0001280  78.3739 281.7538 13.21826040138601
ONEWEB-0550             
1 56052U 23043G   26019.63627266 -.00000876  00000+0 -21530-2 0  9991
2 56052  87.9207 273.6150 0001749  76.8005 283.3324 13.21831437138600
ONEWEB-0551             
1 56053U 23043H   26019.46316541  .00000216  00000+0  53950-3 0  9992
2 56053  87.9004 288.9188 0001302  76.8913 283.2363 13.15546589136849
ONEWEB-0552             
1 56054U 23043J   26019.40425213  .00000107  00000+0  22744-3 0  9990
2 56054  87.9213 273.6695 0001405  67.7059 292.4224 13.21825624138577
ONEWEB-0553             
1 56055U 23043K   26019.60785867 -.00000332  00000+0 -90098-3 0  9996
2 56055  87.9022 258.3566 0001805  85.8200 274.3138 13.16594061139426
ONEWEB-0554             
1 56056U 23043L   26019.36720255  .00000031  00000+0  48420-4 0  9997
2 56056  87.9024 258.4155 0001711  72.4089 287.7229 13.16596848139375
ONEWEB-0555             
1 56057U 23043M   26019.55721084  .00000100  00000+0  22851-3 0  9996
2 56057  87.9027 258.3617 0001883  91.1367 268.9980 13.16595265139409
ONEWEB-0557             
1 56058U 23043N   26019.64745979  .00000116  00000+0  26855-3 0  9991
2 56058  87.9024 258.3557 0002769  74.7628 285.3809 13.16595680139416
